ORBCOMM FM33            
1 25983U 99065D   24288.81570824  .00003342  00000+0  11266-2 0  9994
2 25983  45.0278  84.4440 0009043 258.4894 101.4939 14.38607426300714
ORBCOMM FM36            
1 25984U 99065E   24288.80314675  .00002984  00000+0  10519-2 0  9995
2 25984  45.0381 172.6367 0003256 135.6702 224.4407 14.36646089299115
ORBCOMM FM35            
1 25985U 99065F   24288.76478037  .00001911  00000+0  70108-3 0  9994
2 25985  45.0386 176.1154 0002940 256.5705 103.4815 14.35931580299491
ORBCOMM FM34            
1 25986U 99065G   24288.73695954  .00002401  00000+0  86786-3 0  9995
2 25986  45.0378 176.7943 0003014 190.3790 169.6996 14.35949572299604
ORBCOMM FM38            
1 33060U 08031A   24288.79651817  .00005066  00000+0  70481-3 0  9991
2 33060  48.4409  42.9339 0004408  58.5307 301.6038 14.79075377878393
ORBCOMM FM41            
1 33061U 08031B   24288.69506147  .00004654  00000+0  65465-3 0  9994
2 33061  48.4440  50.4196 0003756  39.7951  96.4810 14.78756859877874
ORBCOMM FM29            
1 33062U 08031C   24288.82740917  .00004927  00000+0  69153-3 0  9996
2 33062  48.4386  57.8103 0005468  43.2438 114.2942 14.78744834877803
ORBCOMM FM39            
1 33063U 08031D   24288.81044193  .00004825  00000+0  69672-3 0  9992
2 33063  48.4395  79.6904 0006598  17.6476 342.4666 14.77564774877481
