<?xml version="1.0" encoding="UTF-8"?>
<ndm xmlns:xsi="http://www.w3.org/2001/XMLSchema-instance" xsi:noNamespaceSchemaLocation="https://sanaregistry.org/r/ndmxml_unqualified/ndmxml-2.0.0-master-2.0.xsd">
<omm id="CCSDS_OMM_VERS" version="2.0">
<header><CREATION_DATE/><ORIGINATOR/></header><body><segment><metadata><OBJECT_NAME>ORBCOMM FM33</OBJECT_NAME><OBJECT_ID>1999-065D</OBJECT_ID><CENTER_NAME>EARTH</CENTER_NAME><REF_FRAME>TEME</REF_FRAME><TIME_SYSTEM>UTC</TIME_SYSTEM><MEAN_ELEMENT_THEORY>SGP4</MEAN_ELEMENT_THEORY></metadata><data><meanElements><EPOCH>2024-10-14T19:34:37.191936</EPOCH><MEAN_MOTION>14.38607426</MEAN_MOTION><ECCENTRICITY>.0009043</ECCENTRICITY><INCLINATION>45.0278</INCLINATION><RA_OF_ASC_NODE>84.4440</RA_OF_ASC_NODE><ARG_OF_PERICENTER>258.4894</ARG_OF_PERICENTER><MEAN_ANOMALY>101.4939</MEAN_ANOMALY></meanElements><tleParameters><EPHEMERIS_TYPE>0</EPHEMERIS_TYPE><CLASSIFICATION_TYPE>U</CLASSIFICATION_TYPE><NORAD_CAT_ID>25983</NORAD_CAT_ID><ELEMENT_SET_NO>999</ELEMENT_SET_NO><REV_AT_EPOCH>30071</REV_AT_EPOCH><BSTAR>.11266E-2</BSTAR><MEAN_MOTION_DOT>.3342E-4</MEAN_MOTION_DOT><MEAN_MOTION_DDOT>0</MEAN_MOTION_DDOT></tleParameters></data></segment></body></omm>
<omm id="CCSDS_OMM_VERS" version="2.0">
<header><CREATION_DATE/><ORIGINATOR/></header><body><segment><metadata><OBJECT_NAME>ORBCOMM FM36</OBJECT_NAME><OBJECT_ID>1999-065E</OBJECT_ID><CENTER_NAME>EARTH</CENTER_NAME><REF_FRAME>TEME</REF_FRAME><TIME_SYSTEM>UTC</TIME_SYSTEM><MEAN_ELEMENT_THEORY>SGP4</MEAN_ELEMENT_THEORY></metadata><data><meanElements><EPOCH>2024-10-14T19:16:31.879200</EPOCH><MEAN_MOTION>14.36646089</MEAN_MOTION><ECCENTRICITY>.0003256</ECCENTRICITY><INCLINATION>45.0381</INCLINATION><RA_OF_ASC_NODE>172.6367</RA_OF_ASC_NODE><ARG_OF_PERICENTER>135.6702</ARG_OF_PERICENTER><MEAN_ANOMALY>224.4407</MEAN_ANOMALY></meanElements><tleParameters><EPHEMERIS_TYPE>0</EPHEMERIS_TYPE><CLASSIFICATION_TYPE>U</CLASSIFICATION_TYPE><NORAD_CAT_ID>25984</NORAD_CAT_ID><ELEMENT_SET_NO>999</ELEMENT_SET_NO><REV_AT_EPOCH>29911</REV_AT_EPOCH><BSTAR>.10519E-2</BSTAR><MEAN_MOTION_DOT>.2984E-4</MEAN_MOTION_DOT><MEAN_MOTION_DDOT>0</MEAN_MOTION_DDOT></tleParameters></data></segment></body></omm>
<omm id="CCSDS_OMM_VERS" version="2.0">
<header><CREATION_DATE/><ORIGINATOR/></header><body><segment><metadata><OBJECT_NAME>ORBCOMM FM35</OBJECT_NAME><OBJECT_ID>1999-065F</OBJECT_ID><CENTER_NAME>EARTH</CENTER_NAME><REF_FRAME>TEME</REF_FRAME><TIME_SYSTEM>UTC</TIME_SYSTEM><MEAN_ELEMENT_THEORY>SGP4</MEAN_ELEMENT_THEORY></metadata><data><meanElements><EPOCH>2024-10-14T18:21:17.023968</EPOCH><MEAN_MOTION>14.35931580</MEAN_MOTION><ECCENTRICITY>.000294</ECCENTRICITY><INCLINATION>45.0386</INCLINATION><RA_OF_ASC_NODE>176.1154</RA_OF_ASC_NODE><ARG_OF_PERICENTER>256.5705</ARG_OF_PERICENTER><MEAN_ANOMALY>103.4815</MEAN_ANOMALY></meanElements><tleParameters><EPHEMERIS_TYPE>0</EPHEMERIS_TYPE><CLASSIFICATION_TYPE>U</CLASSIFICATION_TYPE><NORAD_CAT_ID>25985</NORAD_CAT_ID><ELEMENT_SET_NO>999</ELEMENT_SET_NO><REV_AT_EPOCH>29949</REV_AT_EPOCH><BSTAR>.70108E-3</BSTAR><MEAN_MOTION_DOT>.1911E-4</MEAN_MOTION_DOT><MEAN_MOTION_DDOT>0</MEAN_MOTION_DDOT></tleParameters></data></segment></body></omm>
<omm id="CCSDS_OMM_VERS" version="2.0">
<header><CREATION_DATE/><ORIGINATOR/></header><body><segment><metadata><OBJECT_NAME>ORBCOMM FM34</OBJECT_NAME><OBJECT_ID>1999-065G</OBJECT_ID><CENTER_NAME>EARTH</CENTER_NAME><REF_FRAME>TEME</REF_FRAME><TIME_SYSTEM>UTC</TIME_SYSTEM><MEAN_ELEMENT_THEORY>SGP4</MEAN_ELEMENT_THEORY></metadata><data><meanElements><EPOCH>2024-10-14T17:41:13.304256</EPOCH><MEAN_MOTION>14.35949572</MEAN_MOTION><ECCENTRICITY>.0003014</ECCENTRICITY><INCLINATION>45.0378</INCLINATION><RA_OF_ASC_NODE>176.7943</RA_OF_ASC_NODE><ARG_OF_PERICENTER>190.3790</ARG_OF_PERICENTER><MEAN_ANOMALY>169.6996</MEAN_ANOMALY></meanElements><tleParameters><EPHEMERIS_TYPE>0</EPHEMERIS_TYPE><CLASSIFICATION_TYPE>U</CLASSIFICATION_TYPE><NORAD_CAT_ID>25986</NORAD_CAT_ID><ELEMENT_SET_NO>999</ELEMENT_SET_NO><REV_AT_EPOCH>29960</REV_AT_EPOCH><BSTAR>.86786E-3</BSTAR><MEAN_MOTION_DOT>.2401E-4</MEAN_MOTION_DOT><MEAN_MOTION_DDOT>0</MEAN_MOTION_DDOT></tleParameters></data></segment></body></omm>
<omm id="CCSDS_OMM_VERS" version="2.0">
<header><CREATION_DATE/><ORIGINATOR/></header><body><segment><metadata><OBJECT_NAME>ORBCOMM FM38</OBJECT_NAME><OBJECT_ID>2008-031A</OBJECT_ID><CENTER_NAME>EARTH</CENTER_NAME><REF_FRAME>TEME</REF_FRAME><TIME_SYSTEM>UTC</TIME_SYSTEM><MEAN_ELEMENT_THEORY>SGP4</MEAN_ELEMENT_THEORY></metadata><data><meanElements><EPOCH>2024-10-14T19:06:59.169888</EPOCH><MEAN_MOTION>14.79075377</MEAN_MOTION><ECCENTRICITY>.0004408</ECCENTRICITY><INCLINATION>48.4409</INCLINATION><RA_OF_ASC_NODE>42.9339</RA_OF_ASC_NODE><ARG_OF_PERICENTER>58.5307</ARG_OF_PERICENTER><MEAN_ANOMALY>301.6038</MEAN_ANOMALY></meanElements><tleParameters><EPHEMERIS_TYPE>0</EPHEMERIS_TYPE><CLASSIFICATION_TYPE>U</CLASSIFICATION_TYPE><NORAD_CAT_ID>33060</NORAD_CAT_ID><ELEMENT_SET_NO>999</ELEMENT_SET_NO><REV_AT_EPOCH>87839</REV_AT_EPOCH><BSTAR>.70481E-3</BSTAR><MEAN_MOTION_DOT>.5066E-4</MEAN_MOTION_DOT><MEAN_MOTION_DDOT>0</MEAN_MOTION_DDOT></tleParameters></data></segment></body></omm>
<omm id="CCSDS_OMM_VERS" version="2.0">
<header><CREATION_DATE/><ORIGINATOR/></header><body><segment><metadata><OBJECT_NAME>ORBCOMM FM41</OBJECT_NAME><OBJECT_ID>2008-031B</OBJECT_ID><CENTER_NAME>EARTH</CENTER_NAME><REF_FRAME>TEME</REF_FRAME><TIME_SYSTEM>UTC</TIME_SYSTEM><MEAN_ELEMENT_THEORY>SGP4</MEAN_ELEMENT_THEORY></metadata><data><meanElements><EPOCH>2024-10-14T16:40:53.311008</EPOCH><MEAN_MOTION>14.78756859</MEAN_MOTION><ECCENTRICITY>.0003756</ECCENTRICITY><INCLINATION>48.4440</INCLINATION><RA_OF_ASC_NODE>50.4196</RA_OF_ASC_NODE><ARG_OF_PERICENTER>39.7951</ARG_OF_PERICENTER><MEAN_ANOMALY>96.4810</MEAN_ANOMALY></meanElements><tleParameters><EPHEMERIS_TYPE>0</EPHEMERIS_TYPE><CLASSIFICATION_TYPE>U</CLASSIFICATION_TYPE><NORAD_CAT_ID>33061</NORAD_CAT_ID><ELEMENT_SET_NO>999</ELEMENT_SET_NO><REV_AT_EPOCH>87787</REV_AT_EPOCH><BSTAR>.65465E-3</BSTAR><MEAN_MOTION_DOT>.4654E-4</MEAN_MOTION_DOT><MEAN_MOTION_DDOT>0</MEAN_MOTION_DDOT></tleParameters></data></segment></body></omm>
<omm id="CCSDS_OMM_VERS" version="2.0">
<header><CREATION_DATE/><ORIGINATOR/></header><body><segment><metadata><OBJECT_NAME>ORBCOMM FM29</OBJECT_NAME><OBJECT_ID>2008-031C</OBJECT_ID><CENTER_NAME>EARTH</CENTER_NAME><REF_FRAME>TEME</REF_FRAME><TIME_SYSTEM>UTC</TIME_SYSTEM><MEAN_ELEMENT_THEORY>SGP4</MEAN_ELEMENT_THEORY></metadata><data><meanElements><EPOCH>2024-10-14T19:51:28.152288</EPOCH><MEAN_MOTION>14.78744834</MEAN_MOTION><ECCENTRICITY>.0005468</ECCENTRICITY><INCLINATION>48.4386</INCLINATION><RA_OF_ASC_NODE>57.8103</RA_OF_ASC_NODE><ARG_OF_PERICENTER>43.2438</ARG_OF_PERICENTER><MEAN_ANOMALY>114.2942</MEAN_ANOMALY></meanElements><tleParameters><EPHEMERIS_TYPE>0</EPHEMERIS_TYPE><CLASSIFICATION_TYPE>U</CLASSIFICATION_TYPE><NORAD_CAT_ID>33062</NORAD_CAT_ID><ELEMENT_SET_NO>999</ELEMENT_SET_NO><REV_AT_EPOCH>87780</REV_AT_EPOCH><BSTAR>.69153E-3</BSTAR><MEAN_MOTION_DOT>.4927E-4</MEAN_MOTION_DOT><MEAN_MOTION_DDOT>0</MEAN_MOTION_DDOT></tleParameters></data></segment></body></omm>
<omm id="CCSDS_OMM_VERS" version="2.0">
<header><CREATION_DATE/><ORIGINATOR/></header><body><segment><metadata><OBJECT_NAME>ORBCOMM FM39</OBJECT_NAME><OBJECT_ID>2008-031D</OBJECT_ID><CENTER_NAME>EARTH</CENTER_NAME><REF_FRAME>TEME</REF_FRAME><TIME_SYSTEM>UTC</TIME_SYSTEM><MEAN_ELEMENT_THEORY>SGP4</MEAN_ELEMENT_THEORY></metadata><data><meanElements><EPOCH>2024-10-14T19:27:02.182752</EPOCH><MEAN_MOTION>14.77564774</MEAN_MOTION><ECCENTRICITY>.0006598</ECCENTRICITY><INCLINATION>48.4395</INCLINATION><RA_OF_ASC_NODE>79.6904</RA_OF_ASC_NODE><ARG_OF_PERICENTER>17.6476</ARG_OF_PERICENTER><MEAN_ANOMALY>342.4666</MEAN_ANOMALY></meanElements><tleParameters><EPHEMERIS_TYPE>0</EPHEMERIS_TYPE><CLASSIFICATION_TYPE>U</CLASSIFICATION_TYPE><NORAD_CAT_ID>33063</NORAD_CAT_ID><ELEMENT_SET_NO>999</ELEMENT_SET_NO><REV_AT_EPOCH>87748</REV_AT_EPOCH><BSTAR>.69672E-3</BSTAR><MEAN_MOTION_DOT>.4825E-4</MEAN_MOTION_DOT><MEAN_MOTION_DDOT>0</MEAN_MOTION_DDOT></tleParameters></data></segment></body></omm>

</ndm>
